STARLINK-2753           
1 48696U 21044BL  25108.21395132 -.00000762  00000+0 -32300-4 0  9994
2 48696  53.0538 112.7853 0001187  86.4480 273.6644 15.06392797215912
STARLINK-3004           
1 48880U 21059B   25108.89189710 -.00001993  00000+0 -15057-3 0  9998
2 48880  97.6592 234.9639 0000971 124.8529 235.2787 15.01267475210063
STARLINK-3005           
1 48881U 21059C   25107.88546413 -.00000857  00000+0 -62103-4 0  9997
2 48881  97.6585 233.9223 0002262  90.6751 269.4733 15.01252401209922
STARLINK-3096           
1 49131U 21082B   25108.83861997 -.00000700  00000+0 -50847-4 0  9994
2 49131  69.9999 353.5118 0002084 273.5268  86.5653 14.98335052198308
STARLINK-3090           
1 49132U 21082C   25109.18537118  .00002680  00000+0  23217-3 0  9996
2 49132  70.0022  32.5210 0002409 251.3113 108.7784 14.98349792197374
STARLINK-3077           
1 49133U 21082D   25108.86829006  .00000374  00000+0  39147-4 0  9999
2 49133  70.0012  33.4480 0002267 265.1534  94.9366 14.98332590197320
STARLINK-3078           
1 49134U 21082E   25108.86411384  .00000345  00000+0  36654-4 0  9994
2 49134  70.0019  33.4621 0002327 258.3914 101.6984 14.98335156198524
STARLINK-3073           
1 49135U 21082F   25109.10147169  .00002031  00000+0  17787-3 0  9999
2 49135  70.0018 352.8429 0002505 250.0499 110.0390 14.98345856198357
STARLINK-3084           
1 49136U 21082G   25109.16431263 -.00000050  00000+0  36334-5 0  9998
2 49136  70.0004  12.6952 0002876 269.4937  90.5892 14.98329405197874
STARLINK-3055           
1 49137U 21082H   25108.82633394  .00004424  00000+0  37825-3 0  9992
2 49137  70.0015  13.5518 0003572 282.8261  77.2499 14.98335838197814
STARLINK-3058           
1 49138U 21082J   25109.19374630  .00000605  00000+0  58488-4 0  9995
2 49138  70.0013  32.6327 0002838 262.8954  97.1883 14.98337925197372
STARLINK-3057           
1 49139U 21082K   25109.09314054  .00000459  00000+0  46248-4 0  9997
2 49139  70.0009 352.8677 0002755 267.9082  92.1762 14.98330886198347
STARLINK-3093           
1 49141U 21082M   25109.18957118  .00001088  00000+0  98955-4 0  9995
2 49141  70.0008  32.6466 0002989 272.0376  88.0440 14.98335440198573
STARLINK-3042           
1 49142U 21082N   25109.25002315  .00129893  00000+0  65150-3 0  9999
2 49142  69.9965 341.6894 0005586 235.0013 186.3593 15.81210135198627
STARLINK-3109           
1 49143U 21082P   25109.15595640  .00001649  00000+0  14597-3 0  9994
2 49143  70.0012  12.7228 0002942 270.0752  90.0070 14.98338280197857
STARLINK-3100           
1 49144U 21082Q   25109.18123503 -.00008783  00000+0 -72997-3 0  9999
2 49144  70.0035  32.6483 0002413 268.6241  91.4641 14.98293444197374
STARLINK-3119           
1 49145U 21082R   25108.86365370  .00000101  00000+0  16280-4 0  9992
2 49145  70.0001 353.4463 0002579 263.0064  97.0801 14.98331976198302
STARLINK-3116           
1 49146U 21082S   25109.15179090  .00000701  00000+0  66515-4 0  9990
2 49146  70.0001  12.7386 0003206 271.2328  88.8464 14.98334699199022
STARLINK-3071           
1 49147U 21082T   25109.07647163 -.00003102  00000+0 -25240-3 0  9992
2 49147  70.0000 352.9268 0003216 262.4049  97.6744 14.98308049199516
STARLINK-3048           
1 49148U 21082U   25109.14344188  .00000013  00000+0  89042-5 0  9990
2 49148  70.0019  12.7383 0002824 271.0916  88.9920 14.98329248198982
STARLINK-3104           
1 49150U 21082W   25109.22900718  .17968081  44585-5  27926-3 0  9998
2 49150  69.9786  18.4731 0011086 248.2116 214.3536 16.47722106198929
STARLINK-3102           
1 49151U 21082X   25109.12233689 -.00001746  00000+0 -13861-3 0  9995
2 49151  70.0006 352.8019 0002721 255.3294 104.7564 14.98325487199552
STARLINK-3072           
1 49153U 21082Z   25109.04723827 -.00003093  00000+0 -25137-3 0  9992
2 49153  69.9996 352.9959 0003400 275.2242  84.8529 14.98350562198338
STARLINK-3068           
1 49154U 21082AA  25108.80546745  .00001789  00000+0  15783-3 0  9992
2 49154  70.0008  13.5934 0002891 261.8951  98.1880 14.98297247198888
STARLINK-3060           
1 49155U 21082AB  25109.10986835 -.00004627  00000+0 -38060-3 0  9994
2 49155  70.0010 352.8297 0002677 265.9877  94.0976 14.98297789199420
STARLINK-3085           
1 49156U 21082AC  25108.82192763  .00002214  00000+0  19324-3 0  9992
2 49156  70.0013 353.5566 0003122 271.6865  88.3937 14.98338027199387
STARLINK-3051           
1 49157U 21082AD  25109.06833381  .00001449  00000+0  12917-3 0  9998
2 49157  70.0009  12.9349 0002788 263.5735  96.5107 14.98336598198943
STARLINK-3083           
1 49158U 21082AE  25108.76431627  .00042612  00000+0  14362-2 0  9994
2 49158  69.9853 335.6448 0002751 246.8899 113.1987 15.30521566199848
STARLINK-3056           
1 49159U 21082AF  25109.16872044  .00002185  00000+0  19082-3 0  9998
2 49159  70.0043  32.6922 0002196 249.9200 110.1723 14.98332780198460
STARLINK-3095           
1 49160U 21082AG  25109.15620559  .00001443  00000+0  12860-3 0  9994
2 49160  70.0008  32.7050 0002467 250.8849 109.2043 14.98352320198441
STARLINK-3080           
1 49161U 21082AH  25109.22706410  .00009614  00000+0  81108-3 0  9993
2 49161  70.0024  32.5236 0002558 273.0028  87.0839 14.98396354198453
STARLINK-3088           
1 49163U 21082AK  25108.85972284  .00001204  00000+0  10870-3 0  9992
2 49163  70.0026  13.4720 0002385 259.4889 100.6001 14.98333064198984
STARLINK-3106           
1 49164U 21082AL  25108.85138176 -.00000707  00000+0 -51504-4 0  9996
2 49164  70.0015  13.4974 0002474 257.7344 102.3538 14.98324993198985
STARLINK-3052           
1 49165U 21082AM  25109.15203431  .00005234  00000+0  44613-3 0  9998
2 49165  70.0007  32.7461 0001663 273.5862  86.5106 14.98329345198577
STARLINK-3089           
1 49166U 21082AN  25109.12257337  .00000410  00000+0  42173-4 0  9991
2 49166  70.0004  12.8087 0002895 262.8348  97.2482 14.98336359199059
STARLINK-3054           
1 49167U 21082AP  25109.21043390  .00000412  00000+0  42336-4 0  9997
2 49167  70.0012  32.5786 0002755 264.9636  95.1209 14.98336936198584
STARLINK-3046           
1 49169U 21082AR  25109.18098408  .00003319  00000+0  28576-3 0  9993
2 49169  70.0027  12.6712 0002102 234.3302 125.7662 14.98340245199073
STARLINK-3107           
1 49171U 21082AT  25108.80570166 -.00003427  00000+0 -27946-3 0  9992
2 49171  70.0015  33.6147 0003008 272.3071  87.7744 14.98347692198473
STARLINK-3091           
1 49172U 21082AU  25108.91668981  .01084076  00000+0  20911-1 0  9999
2 49172  70.0025  10.7168 0003287 280.3627 106.6766 15.45154865197878
STARLINK-3045           
1 49173U 21082AV  25109.16847384  .00000562  00000+0  54860-4 0  9994
2 49173  70.0002  12.6819 0002365 269.6902  90.3986 14.98339160197862
STARLINK-3047           
1 49174U 21082AW  25108.82608455  .00057271  00000+0  15111-2 0  9994
2 49174  69.9905 344.9006 0007600 239.7576 120.2851 15.38152532199691
STARLINK-3087           
1 49175U 21082AX  25109.06418078  .00000609  00000+0  58838-4 0  9990
2 49175  70.0040  12.9675 0002575 231.9834 128.1093 14.98328067197849
STARLINK-3069           
1 49176U 21082AY  25108.85114823  .00001031  00000+0  94202-4 0  9993
2 49176  69.9995 353.4868 0002994 275.2910  84.7908 14.98307246198304
STARLINK-3103           
1 49177U 21082AZ  25109.07227792  .00000180  00000+0  22858-4 0  9991
2 49177  70.0001 352.9404 0002914 268.4111  91.6714 14.98335417199534
STARLINK-3086           
1 49178U 21082BA  25108.83073492 -.00000264  00000+0 -14338-4 0  9990
2 49178  70.0018  33.5304 0002246 268.1786  91.9116 14.98348666198478
STARLINK-3043           
1 49179U 21082BB  25109.05975612 -.00001822  00000+0 -14486-3 0  9995
2 49179  69.9997 352.9555 0003146 265.7299  94.3501 14.98343725198331
STARLINK-3050           
1 49180U 21082BC  25109.17681680  .00001838  00000+0  16177-3 0  9993
2 49180  70.0007  12.6661 0002683 266.5221  93.5631 14.98339628199035
STARLINK-3059           
1 49181U 21082BD  25108.81404361  .00000712  00000+0  67479-4 0  9995
2 49181  70.0010  33.5860 0002858 265.2607  94.8226 14.98318123198480
STARLINK-3151           
1 49408U 21104A   25108.54037818 -.00000469  00000+0 -11345-4 0  9993
2 49408  53.2165 248.7946 0001961 119.5216 240.5972 15.08834459190647
STARLINK-3075           
1 49409U 21104B   25108.75286083 -.00000243  00000+0  28120-5 0  9996
2 49409  53.2182 247.8148 0001286  83.4671 276.6467 15.08834541190679
STARLINK-3147           
1 49410U 21104C   25108.81269332 -.00001014  00000+0 -45613-4 0  9996
2 49410  53.2165 247.5576 0001498 103.9199 256.1960 15.08836182190676
STARLINK-3162           
1 49411U 21104D   25108.73905994  .00000372  00000+0  41440-4 0  9997
2 49411  53.2166 237.8773 0001163  87.6467 272.4659 15.08845430190799
STARLINK-3157           
1 49413U 21104F   25108.53761879 -.00001977  00000+0 -10617-3 0  9994
2 49413  53.2172 238.7911 0001296  80.4639 279.6499 15.08837674190771
STARLINK-3146           
1 49414U 21104G   25108.67557793 -.00001622  00000+0 -83841-4 0  9995
2 49414  53.2175 248.1599 0001524 112.5829 247.5325 15.08837492190662
STARLINK-3159           
1 49415U 21104H   25108.86417842 -.00001015  00000+0 -45712-4 0  9998
2 49415  53.2176 237.3140 0001311  92.9470 267.1673 15.08838661190824
STARLINK-3133           
1 49416U 21104J   25108.66821834 -.00001423  00000+0 -71321-4 0  9995
2 49416  53.2177 248.1956 0001580  96.6485 263.4687 15.08835732190668
STARLINK-3154           
1 49417U 21104K   25108.62863184 -.00005624  00000+0 -33566-3 0  9991
2 49417  53.2174 238.0257 0001199  82.3975 277.7154 15.08828429190808
STARLINK-3111           
1 49418U 21104L   25108.53205759 -.00000817  00000+0 -33237-4 0  9995
2 49418  53.2174 248.8082 0001433  95.2182 264.8974 15.08835255190642
STARLINK-3120           
1 49419U 21104M   25108.78597567 -.00000691  00000+0 -25353-4 0  9994
2 49419  53.2189 247.6601 0001461  98.6869 261.4289 15.08838002190660
